OBJECT_NAME,OBJECT_ID,EPOCH,MEAN_MOTION,ECCENTRICITY,INCLINATION,RA_OF_ASC_NODE,ARG_OF_PERICENTER,MEAN_ANOMALY,EPHEMERIS_TYPE,CLASSIFICATION_TYPE,NORAD_CAT_ID,ELEMENT_SET_NO,REV_AT_EPOCH,BSTAR,MEAN_MOTION_DOT,MEAN_MOTION_DDOT
ASNARO-2,2018-007A,2026-06-30T18:59:57.181920,15.22425156,.00015667,97.3968,188.5061,90.6962,269.4454,0,U,43152,999,46948,.12683708E-3,.2862E-4,0
JILIN-1 07,2018-008E,2026-07-01T15:09:36.119520,15.34963612,.0008403,97.1760,202.1763,20.1252,340.0321,0,U,43159,999,46721,.31112194E-3,.10488E-3,0
JILIN-1 08,2018-008F,2026-07-01T15:24:07.230240,15.33874758,.0006977,97.1795,201.4869,39.0658,321.1088,0,U,43160,999,46716,.21149834E-3,.6858E-4,0
S-NET D,2018-014G,2026-07-01T07:35:19.209984,15.16805336,.00073679,97.5353,87.0190,342.5035,17.5943,0,U,43186,999,46090,.29949579E-3,.5821E-4,0
S-NET B,2018-014H,2026-07-01T07:52:12.649152,15.16776039,.00077931,97.5358,87.0177,336.6590,23.4288,0,U,43187,999,46090,.31140429E-3,.6051E-4,0
S-NET A,2018-014J,2026-07-01T07:33:35.512704,15.16813698,.00077394,97.5368,87.2164,337.5464,22.5429,0,U,43188,999,46090,.29947282E-3,.5823E-4,0
S-NET C,2018-014K,2026-07-01T07:57:53.793504,15.16767745,.00088664,97.5386,87.3099,327.5717,32.4970,0,U,43189,999,45945,.3137128E-3,.6096E-4,0
PAZ,2018-020A,2026-07-01T14:21:10.178208,15.19153977,.00017229,97.4449,189.7787,88.1756,271.9676,0,U,43215,999,46319,.95223521E-4,.1933E-4,0
GOES 17,2018-022A,2026-07-01T13:39:43.549056,1.00272068,.00007459,0.9717,85.4856,36.8203,272.7503,0,U,43226,999,3056,0,-.173E-5,0
LKW-4,2018-025A,2026-07-01T13:11:52.931616,15.63438543,.00026532,97.6344,354.5604,228.6133,131.4897,0,U,43236,999,46227,.54442315E-3,.50311E-3,0
ZHUHAI-1 OVS-02,2018-040B,2026-07-01T14:24:34.424352,15.25216667,.00035361,97.0378,198.9760,171.4986,188.6313,0,U,43440,999,45491,.36526189E-3,.9112E-4,0
ZHUHAI-1 OHS-02,2018-040C,2026-07-01T15:25:47.716896,15.26090487,.00099017,97.0359,205.9701,167.2704,192.8788,0,U,43441,999,11648,.34911166E-3,.8948E-4,0
GAOFEN-6,2018-048A,2026-07-01T13:46:19.564320,14.76366587,.00118189,98.0968,245.2430,119.7907,240.4480,0,U,43484,999,43551,-.4446977E-5,-.83E-6,0
LUOJIA-1 01,2018-048B,2026-07-01T15:19:48.964224,14.87339616,.00104786,97.8106,260.5946,76.9644,283.2741,0,U,43485,999,43636,.35515658E-3,.3156E-4,0
PAKTES 1A,2018-056A,2026-07-01T14:55:57.113184,14.99154784,.00207324,98.1283,339.7237,61.6188,298.7120,0,U,43529,999,43408,.16808294E-3,.1988E-4,0
PRSS-1,2018-056B,2026-07-01T13:42:26.752608,14.82011879,.00014392,97.7820,250.0427,76.6064,283.5310,0,U,43530,999,43056,.14240412E-3,.1079E-4,0
HAIYANG-1C,2018-068A,2026-07-01T14:48:17.770176,14.34183473,.00119272,98.5192,254.7162,55.7947,304.4367,0,U,43609,999,40915,.95203336E-4,.223E-5,0
SSTL S1-4,2018-071A,2026-07-01T14:25:22.691712,14.96190334,.00023176,97.5016,53.6145,103.4285,256.7195,0,U,43618,999,42509,.13377594E-3,.1453E-4,0
HAIYANG-2B,2018-081A,2026-07-01T14:21:25.406208,13.79308014,.0000262,99.3278,191.1368,167.5751,192.5407,0,U,43655,999,38691,-.32176222E-4,-.77E-6,0
CFOSAT,2018-083A,2026-07-01T14:39:46.919808,15.16463704,.00022455,97.3602,186.7169,81.2712,278.8776,0,U,43662,999,42462,.20521731E-3,.3929E-4,0
TEN-KOH,2018-084G,2026-07-01T12:06:01.640160,15.02987580,.00106939,98.0737,15.4703,72.5563,287.6830,0,U,43677,999,41831,.14742106E-3,.1918E-4,0
DIWATA-2B,2018-084H,2026-07-01T15:22:48.194976,15.00513795,.00131214,98.1199,19.4800,125.4129,234.8321,0,U,43678,999,41838,.16567281E-3,.2025E-4,0
STARS-AO,2018-084J,2026-07-01T12:25:40.815264,15.17210034,.00035583,98.0483,37.3725,107.7417,252.4203,0,U,43679,999,41964,.33571199E-3,.66E-4,0
AUTCUBE 2,2018-084K,2026-07-01T11:25:59.647584,15.10183327,.00088945,98.0690,29.4083,4.2761,355.8541,0,U,43681,999,41908,.22752788E-3,.3647E-4,0
METOP-C,2018-087A,2026-07-01T13:37:40.823040,14.21515931,.00021401,98.6638,241.9082,111.1110,249.0296,0,U,43689,999,39687,.68677781E-4,.107E-5,0
ES'HAIL 2,2018-090A,2026-07-01T14:09:02.469888,1.00272677,.00022416,0.0181,24.6739,110.2992,22.7129,0,U,43700,999,2782,0,.155E-5,0
MOHAMMED VI-B,2018-095A,2026-07-01T14:32:27.153312,14.77065575,.00015909,97.9558,254.7326,96.5462,263.5929,0,U,43717,999,41031,.70581528E-4,.447E-5,0
HYSIS,2018-096A,2026-07-01T15:00:35.766144,14.78647912,.00018785,97.9839,249.2600,89.2763,270.8663,0,U,43719,999,40955,.24035329E-3,.1709E-4,0
COSMOS 2530 (RODNIK-S 16),2018-097A,2026-07-01T14:59:39.352128,12.42881283,.00195712,82.5122,213.3206,8.8402,351.3019,0,U,43751,999,34408,-.65060312E-3,-.8E-6,0
