ASNARO-2                
1 43152U 18007A   26181.79163405  .00002862  00000+0  12684-3 0  9995
2 43152  97.3968 188.5061 0001566  90.6962 269.4454 15.22425156469486
JILIN-1 07              
1 43159U 18008E   26182.63166805  .00010488  00000+0  31112-3 0  9994
2 43159  97.1760 202.1763 0008403  20.1252 340.0321 15.34963612467215
JILIN-1 08              
1 43160U 18008F   26182.64175035  .00006858  00000+0  21150-3 0  9999
2 43160  97.1795 201.4869 0006977  39.0658 321.1088 15.33874758467162
S-NET D                 
1 43186U 18014G   26182.31619456  .00005821  00000+0  29950-3 0  9993
2 43186  97.5353  87.0190 0007367 342.5035  17.5943 15.16805336460902
S-NET B                 
1 43187U 18014H   26182.32792418  .00006051  00000+0  31140-3 0  9995
2 43187  97.5358  87.0177 0007793 336.6590  23.4288 15.16776039460901
S-NET A                 
1 43188U 18014J   26182.31499436  .00005823  00000+0  29947-3 0  9997
2 43188  97.5368  87.2164 0007739 337.5464  22.5429 15.16813698460901
S-NET C                 
1 43189U 18014K   26182.33187261  .00006096  00000+0  31371-3 0  9997
2 43189  97.5386  87.3099 0008866 327.5717  32.4970 15.16767745459452
PAZ                     
1 43215U 18020A   26182.59803447  .00001933  00000+0  95224-4 0  9996
2 43215  97.4449 189.7787 0001722  88.1756 271.9676 15.19153977463197
GOES 17                 
1 43226U 18022A   26182.56925404 -.00000173  00000+0  00000+0 0  9994
2 43226   0.9717  85.4856 0000745  36.8203 272.7503  1.00272068 30563
LKW-4                   
1 43236U 18025A   26182.54991819  .00050311  00000+0  54442-3 0  9990
2 43236  97.6344 354.5604 0002653 228.6133 131.4897 15.63438543462277
ZHUHAI-1 OVS-02         
1 43440U 18040B   26182.60039843  .00009112  00000+0  36526-3 0  9997
2 43440  97.0378 198.9760 0003536 171.4986 188.6313 15.25216667454918
ZHUHAI-1 OHS-02         
1 43441U 18040C   26182.64291339  .00008948  00000+0  34911-3 0  9994
2 43441  97.0359 205.9701 0009901 167.2704 192.8788 15.26090487116486
GAOFEN-6                
1 43484U 18048A   26182.57383755 -.00000083  00000+0 -44470-5 0  9992
2 43484  98.0968 245.2430 0011818 119.7907 240.4480 14.76366587435511
LUOJIA-1 01             
1 43485U 18048B   26182.63876116  .00003156  00000+0  35516-3 0  9999
2 43485  97.8106 260.5946 0010478  76.9644 283.2741 14.87339616436362
PAKTES 1A               
1 43529U 18056A   26182.62218881  .00001988  00000+0  16808-3 0  9999
2 43529  98.1283 339.7237 0020732  61.6188 298.7120 14.99154784434084
PRSS-1                  
1 43530U 18056B   26182.57114297  .00001079  00000+0  14240-3 0  9990
2 43530  97.7820 250.0427 0001439  76.6064 283.5310 14.82011879430567
HAIYANG-1C              
1 43609U 18068A   26182.61687234  .00000223  00000+0  95203-4 0  9990
2 43609  98.5192 254.7162 0011927  55.7947 304.4367 14.34183473409156
SSTL S1-4               
1 43618U 18071A   26182.60095708  .00001453  00000+0  13378-3 0  9990
2 43618  97.5016  53.6145 0002317 103.4285 256.7195 14.96190334425097
HAIYANG-2B              
1 43655U 18081A   26182.59821072 -.00000077  00000+0 -32176-4 0  9992
2 43655  99.3278 191.1368 0000262 167.5751 192.5407 13.79308014386915
CFOSAT                  
1 43662U 18083A   26182.61095972  .00003929  00000+0  20522-3 0  9995
2 43662  97.3602 186.7169 0002245  81.2712 278.8776 15.16463704424622
TEN-KOH                 
1 43677U 18084G   26182.50418565  .00001918  00000+0  14742-3 0  9990
2 43677  98.0737  15.4703 0010693  72.5563 287.6830 15.02987580418316
DIWATA-2B               
1 43678U 18084H   26182.64083559  .00002025  00000+0  16567-3 0  9994
2 43678  98.1199  19.4800 0013121 125.4129 234.8321 15.00513795418384
STARS-AO                
1 43679U 18084J   26182.51783351  .00006600  00000+0  33571-3 0  9995
2 43679  98.0483  37.3725 0003558 107.7417 252.4203 15.17210034419644
AUTCUBE 2               
1 43681U 18084K   26182.47638481  .00003647  00000+0  22753-3 0  9994
2 43681  98.0690  29.4083 0008894   4.2761 355.8541 15.10183327419085
METOP-C                 
1 43689U 18087A   26182.56783360  .00000107  00000+0  68678-4 0  9997
2 43689  98.6638 241.9082 0002140 111.1110 249.0296 14.21515931396878
ES'HAIL 2               
1 43700U 18090A   26182.58961192  .00000155  00000+0  00000+0 0  9991
2 43700   0.0181  24.6739 0002241 110.2992  22.7129  1.00272677 27824
MOHAMMED VI-B           
1 43717U 18095A   26182.60586983  .00000447  00000+0  70582-4 0  9999
2 43717  97.9558 254.7326 0001590  96.5462 263.5929 14.77065575410315
HYSIS                   
1 43719U 18096A   26182.62541396  .00001709  00000+0  24035-3 0  9996
2 43719  97.9839 249.2600 0001878  89.2763 270.8663 14.78647912409557
COSMOS 2530 (RODNIK-S *)
1 43751U 18097A   26182.62476102 -.00000080  00000+0 -65060-3 0  9991
2 43751  82.5122 213.3206 0019571   8.8402 351.3019 12.42881283344084
